SL-14 R/B               
1 18749U 88001B   20026.39979851  .00000060  00000-0  43568-5 0  9994
2 18749  82.5157 131.7138 0019946  52.8050  13.7714 14.83207890731761
COSMOS 1933             
1 18958U 88020A   20026.78996060  .00000471  00000-0  32342-4 0  9994
2 18958  82.5285 263.3437 0010015 280.2552  79.7545 15.03673918734815
SL-3 R/B                
1 19046U 88032B   20026.82707395  .00000775  00000-0  61710-4 0  9990
2 19046  97.4141  54.1142 0037278 332.2165  27.7068 15.02652342715838
SL-16 R/B               
1 19120U 88039B   20027.16300618 -.00000054  00000-0 -27716-5 0  9996
2 19120  71.0141 109.1897 0021641 171.5101 188.6395 14.19206926641735
COSMOS 1953             
1 19210U 88050A   20025.99093782  .00000850  00000-0  56476-4 0  9995
2 19210  82.5163 189.0709 0011905 247.8539 112.1425 15.05897131721206
SL-8 R/B                
1 19257U 88053B   20027.12679977  .00000066  00000-0  30905-4 0  9990
2 19257  74.0481 262.6800 0021545 276.4404 194.2011 14.37455851655836
COSMOS 1975             
1 19573U 88093A   20026.39395315  .00000777  00000-0  53005-4 0  9999
2 19573  82.5215 142.7467 0012889 293.5248  66.4624 15.04805893703137
SL-14 R/B               
1 19574U 88093B   20026.95128358  .00000057  00000-0  40270-5 0  9995
2 19574  82.5340 333.2915 0020800 208.3323 194.4086 14.83318090690832
SL-16 R/B               
1 19650U 88102B   20026.41211126 -.00000051  00000-0 -17891-5 0  9997
2 19650  70.9983 170.6928 0014243 181.3907 178.7179 14.15787397610914
INTERCOSMOS 24          
1 20261U 89080A   20026.36568044  .00000070  00000-0  12037-4 0  9996
2 20261  82.6039 112.9029 1203719  58.0049 313.2364 12.56096877386037
SL-14 R/B               
1 20262U 89080C   20026.74132004  .00000041  00000-0  11073-4 0  9999
2 20262  82.5955 165.3448 1236467 242.4894 104.5302 12.48932407380748
DELTA 2 R/B(1)          
1 20303U 89085B   20026.87533132  .00000757  00000-0  26732-4 0  9993
2 20303  35.6230 185.9495 0096122 348.0267  11.8180 15.26885678646258
DELTA 1 R/B             
1 20323U 89089B   20026.41841116  .00000011  00000-0  12016-4 0  9996
2 20323  97.0678 195.2918 0070772 322.2643  37.3602 14.48331023592690
DELTA 2 R/B(1)          
1 20362U 89097B   20027.11749032  .00111131  65161-5  25531-3 0  9995
2 20362  35.6012 347.7022 0014294 306.1241 120.6534 15.96111694649568
ARIANE 40 R/B           
1 20443U 90005H   20026.81077297 -.00000023  00000-0  71154-5 0  9997
2 20443  98.5968  88.7295 0011182  52.5977 307.6226 14.38079995571876
DELTA 2 R/B(1)          
1 20453U 90008B   20027.12199266  .00000339  00000-0  21697-4 0  9992
2 20453  35.6267  15.4203 0282169 197.1348 161.9677 14.85256932590029
COSMOS 2058             
1 20465U 90010A   20027.16917184  .00000116  00000-0  75549-5 0  9998
2 20465  82.4874  50.2602 0014472 325.6870  34.3417 14.97958422628139
SL-14 R/B               
1 20466U 90010B   20027.02181191  .00000041  00000-0  21724-5 0  9998
2 20466  82.5022 200.0607 0022038  85.8308 274.5423 14.81374373618701
SL-14 R/B               
1 20511U 90018B   20026.89179338  .00000062  00000-0  51269-5 0  9991
2 20511  82.5247 145.9363 0016463 221.7456 277.9675 14.80030435613121
HST                     
1 20580U 90037B   20026.87565446  .00000310  00000-0  78428-5 0  9997
2 20580  28.4682 182.6466 0002733   0.4400 133.9542 15.09329487434492
SL-16 R/B               
1 20625U 90046B   20026.24731274  .00000289  00000-0  17494-3 0  9991
2 20625  70.9999 308.7834 0012226 101.9234 258.3260 14.14648945532367
COSMOS 2084             
1 20663U 90055A   20026.83696344 -.00000076  00000-0  10807-4 0  9993
2 20663  62.7948 284.3476 0041850 208.7113 151.1678 14.92049153602082
SL-6 R/B(2)             
1 20666U 90055D   20026.91355671 -.00000103  00000-0  78472-5 0  9994
2 20666  62.7849 200.8455 0027531 294.5973  65.2253 14.92302682603491
SL-8 R/B                
1 20775U 90078B   20027.05507976  .00000862  00000-0  41710-4 0  9998
2 20775  82.9290 344.0224 0573551 275.7882  77.8227 14.34007907485327
SL-8 R/B                
1 21088U 91006B   20026.40940932  .00000124  00000-0  10922-3 0  9990
2 21088  82.9412  31.5744 0022785 168.2045 300.7940 13.77137424456794
OKEAN-3                 
1 21397U 91039A   20027.15321953  .00000160  00000-0  12921-4 0  9990
2 21397  82.5238 311.9463 0016356 287.9006  72.0431 14.92882260552092
COSMOS 2151             
1 21422U 91042A   20027.15614587  .00000119  00000-0  91456-5 0  9996
2 21422  82.4986  58.4266 0013911 355.1062   5.0019 14.92102651550745
SL-14 R/B               
1 21423U 91042B   20026.92213169  .00000065  00000-0  55383-5 0  9991
2 21423  82.4956 150.1215 0017791  11.2131 348.9474 14.79781109543623
ERS-1                   
1 21574U 91050A   20026.40175180  .00000016  00000-0  19955-4 0  9990
2 21574  98.5799 339.8618 0032959 354.9667   5.1183 14.37727120494542
ARIANE 40 R/B           
1 21610U 91050F   20026.28485726 -.00000007  00000-0  11421-4 0  9998
2 21610  98.4835  96.8295 0002663 349.6784  51.9953 14.40893201497088
INTERCOSMOS 25          
1 21819U 91086A   20027.12079549  .00000742  00000-0  14965-3 0  9994
2 21819  82.5920 211.4556 1516145 215.3078 133.7773 12.05101596227161
SL-8 R/B                
1 21876U 92008B   20026.38282676  .00000029  00000-0  15054-4 0  9995
2 21876  82.9283 128.7734 0033552 252.3158 171.6066 13.75643429402203
SL-8 R/B                
1 21938U 92020B   20026.44981204 -.00000059  00000-0 -77080-4 0  9990
2 21938  82.9298  12.7375 0030382  54.1376 110.6748 13.75276594394013
COSMOS 2219             
1 22219U 92076A   20027.12967734 -.00000127  00000-0 -42463-4 0  9995
2 22219  71.0578   5.0211 0017475   5.1156 355.0141 14.13628250403027
SL-16 R/B               
1 22220U 92076B   20026.93695819  .00000198  00000-0  12328-3 0  9999
2 22220  70.9979 211.5881 0015077 260.8081 251.0341 14.16450085405821
COSMOS 2221             
1 22236U 92080A   20027.12301336  .00000132  00000-0  11627-4 0  9991
2 22236  82.5061 238.1262 0018121  75.4022 284.9204 14.87890586469156
SL-16 R/B               
1 22285U 92093B   20026.36474507  .00000029  00000-0  39396-4 0  9993
2 22285  71.0215  12.6987 0002503 140.9298 219.2006 14.15036134397099
COSMOS 2228             
1 22286U 92094A   20027.02865550  .00000136  00000-0  12052-4 0  9990
2 22286  82.5195 194.2830 0020901 190.4143 169.6645 14.88105497464337
SL-16 R/B               
1 22566U 93016B   20026.73682310  .00000137  00000-0  95519-4 0  9994
2 22566  71.0049 225.3284 0008772 131.2525 228.9355 14.14960632386156
COSMOS 2242             
1 22626U 93024A   20027.05982307  .00000131  00000-0  11564-4 0  9997
2 22626  82.5199 222.3149 0018629 189.7699 170.3159 14.87962426447989
SL-16 R/B               
1 22803U 93059B   20027.13979641  .00000227  00000-0  13695-3 0  9990
2 22803  70.9902  39.1760 0016856   4.9677 355.1610 14.16816333363402
ARIANE 40 R/B           
1 22830U 93061H   20027.12842109 -.00000033  00000-0  47621-5 0  9994
2 22830  98.7869  74.8432 0011192  24.6399 335.5316 14.31443944374714
COSMOS 2278             
1 23087U 94023A   20026.39910026 -.00000147  00000-0 -52524-4 0  9994
2 23087  71.0545 166.6628 0009902 214.8180 145.2295 14.13805405328971
SL-16 R/B               
1 23088U 94023B   20026.42951900 -.00000290  00000-0 -12597-3 0  9999
2 23088  71.0000  81.3191 0000789  98.8339 261.2873 14.14678581330086
SL-16 R/B               
1 23343U 94074B   20026.40449017  .00000004  00000-0  79807-5 0  9998
2 23343  98.0219  80.4993 0005624 246.6447 123.8771 14.76808066357515
SL-16 R/B               
1 23405U 94077B   20026.35571410  .00000153  00000-0  10335-3 0  9991
2 23405  70.9834  11.3369 0004501 293.3357  66.7292 14.15213505300116
ERS-2                   
1 23560U 95021A   20027.12798860  .00000602  00000-0  29412-4 0  9995
2 23560  98.5206 161.3836 0002375 311.1642  48.9386 15.22981909320482
ARIANE 40+ R/B          
1 23561U 95021B   20026.38173987  .00000020  00000-0  21702-4 0  9998
2 23561  98.7437  63.2359 0006174 325.1743  45.6057 14.37953036298016
SL-16 R/B               
1 23705U 95058B   20025.95393221 -.00000241  00000-0 -99659-4 0  9998
2 23705  71.0211 190.0333 0014941 283.3720  76.5736 14.15134670251974
SL-16 R/B               
1 24298U 96051B   20027.03007808  .00000135  00000-0  99495-4 0  9992
2 24298  70.8374 210.7740 0018706 211.8880 148.1109 14.12475334206508
ORBVIEW 2 (SEASTAR)     
1 24883U 97037A   20026.38695444  .00000012  00000-0  20131-4 0  9998
2 24883  98.5983 140.5239 0002899 147.7490 212.3872 14.33537308188215
SL-16 R/B               
1 25400U 98043G   20026.37972118 -.00000031  00000-0  52006-5 0  9996
2 25400  98.5959 325.0446 0010607  37.3511 322.8405 14.25447977120632
SL-16 R/B               
1 25407U 98045B   20026.05613550 -.00000183  00000-0 -69005-4 0  9997
2 25407  71.0103 198.9637 0008699 210.1023 149.9601 14.15798252111058
ISS (ZARYA)             
1 25544U 98067A   20027.32115638 -.00041515  00000-0 -74611-3 0  9990
2 25544  51.6455 330.4025 0005455 198.0096 298.5344 15.49107582210029
SL-8 R/B                
1 25723U 99022C   20027.10601020  .00010022  00000-0  85860-4 0  9998
2 25723  48.4118  64.0472 0007249 356.9685   3.1222 15.69982784155587
CZ-4B R/B               
1 25732U 99025C   20027.11950514 -.00000025  00000-0  10121-4 0  9998
2 25732  98.9598  54.7571 0036391 255.7270 172.3207 14.17672264 71794
OKEAN-O                 
1 25860U 99039A   20027.14429210 -.00000002  00000-0  73010-5 0  9994
2 25860  98.2222  43.5946 0001073  65.3176 294.8145 14.76643276104608
SL-16 R/B               
1 25861U 99039B   20026.87869515 -.00000008  00000-0  65246-5 0  9998
2 25861  98.2033  26.2560 0014375 254.6078 164.3919 14.78561334106699
DELTA 2 R/B             
1 25876U 99041E   20026.32649164 -.00000145  00000-0  14717-4 0  9991
2 25876  51.7670 155.3467 0530474 286.7532  67.5851 14.04384352 48539
HELIOS 1B               
1 25977U 99064A   20027.00737005  .00000006  00000-0  78847-5 0  9996
2 25977  98.2590 177.1013 0002528  88.3932 271.7570 14.82456876 85312
